ONEWEB-0671             
1 55830U 23029AL  25345.26530734  .00000094  00000+0  20195-3 0  9998
2 55830  87.9195 342.3718 0001960  87.7592 272.3765 13.19725689134117
ONEWEB-0672             
1 55831U 23029AM  25345.29252260  .00000111  00000+0  24116-3 0  9994
2 55831  87.9198 311.9077 0001604  86.9905 273.1412 13.20770317136340
ONEWEB-0673             
1 55832U 23029AN  25345.24241769  .00000293  00000+0  69964-3 0  9993
2 55832  87.9207 342.3564 0001922  88.9515 271.1838 13.19724829134111
ONEWEB-0674             
1 55833U 23029AP  25345.24577146  .00000323  00000+0  83652-3 0  9999
2 55833  87.8985 327.1771 0002195  93.2972 266.8409 13.14504056134729
ONEWEB-0675             
1 55834U 23029AQ  25345.25741253  .00000044  00000+0  77223-4 0  9991
2 55834  87.9188 342.3819 0001513  84.5600 275.5705 13.19723963134138
ONEWEB-0720             
1 55835U 23029AR  25345.24951461  .00000077  00000+0  15894-3 0  9996
2 55835  87.9192 342.3815 0002069  80.9909 279.1458 13.19724898134053
ONEWEB-0537             
1 56046U 23043A   25345.25411692  .00000129  00000+0  30371-3 0  9990
2 56046  87.9043 266.1930 0001444  75.5153 284.6138 13.16595504134234
ONEWEB-0538             
1 56047U 23043B   25345.24777780  .00000211  00000+0  51786-3 0  9998
2 56047  87.9041 266.1981 0001627  64.4595 295.6704 13.16595967134244
ONEWEB-0546             
1 56048U 23043C   25345.23511920  .00000158  00000+0  38021-3 0  9997
2 56048  87.9057 266.1915 0001016  79.9535 280.1711 13.16596376134237
ONEWEB-0547             
1 56049U 23043D   25345.29472813  .00000089  00000+0  18501-3 0  9995
2 56049  87.9217 281.4492 0001855  72.6528 287.4809 13.21825010133401
ONEWEB-0548             
1 56050U 23043E   25345.25965168  .00000064  00000+0  13460-3 0  9995
2 56050  87.9038 266.1940 0001972  86.8789 273.2568 13.16594114134237
ONEWEB-0549             
1 56051U 23043F   25345.28731963  .00000078  00000+0  15623-3 0  9991
2 56051  87.9215 281.4645 0001878  68.4347 291.6987 13.21825654133407
ONEWEB-0550             
1 56052U 23043G   25345.27415422  .00000354  00000+0  82675-3 0  9998
2 56052  87.9219 281.4621 0001798  80.6282 279.5056 13.21823699133400
ONEWEB-0551             
1 56053U 23043H   25345.29363683  .00000081  00000+0  18188-3 0  9997
2 56053  87.8989 296.7254 0001984  74.5233 285.6116 13.15548954131695
ONEWEB-0552             
1 56054U 23043J   25345.26921859  .00000069  00000+0  13615-3 0  9996
2 56054  87.9218 281.4718 0002031  73.6005 286.5352 13.21826544133403
ONEWEB-0553             
1 56055U 23043K   25345.24144450  .00000131  00000+0  30805-3 0  9999
2 56055  87.9048 266.1978 0001445  79.2955 280.8339 13.16595074134247
