[{"OBJECT_NAME":"ONEWEB-0671","OBJECT_ID":"2023-029AL","EPOCH":"2025-12-11T06:22:02.554176","MEAN_MOTION":13.19725689,"ECCENTRICITY":0.00019604,"INCLINATION":87.9195,"RA_OF_ASC_NODE":342.3718,"ARG_OF_PERICENTER":87.7592,"MEAN_ANOMALY":272.3765,"EPHEMERIS_TYPE":0,"CLASSIFICATION_TYPE":"U","NORAD_CAT_ID":55830,"ELEMENT_SET_NO":999,"REV_AT_EPOCH":13411,"BSTAR":0.00020194657,"MEAN_MOTION_DOT":9.4e-7,"MEAN_MOTION_DDOT":0},{"OBJECT_NAME":"ONEWEB-0672","OBJECT_ID":"2023-029AM","EPOCH":"2025-12-11T07:01:13.952640","MEAN_MOTION":13.20770317,"ECCENTRICITY":0.00016048,"INCLINATION":87.9198,"RA_OF_ASC_NODE":311.9077,"ARG_OF_PERICENTER":86.9905,"MEAN_ANOMALY":273.1412,"EPHEMERIS_TYPE":0,"CLASSIFICATION_TYPE":"U","NORAD_CAT_ID":55831,"ELEMENT_SET_NO":999,"REV_AT_EPOCH":13634,"BSTAR":0.00024115848,"MEAN_MOTION_DOT":1.11e-6,"MEAN_MOTION_DDOT":0},{"OBJECT_NAME":"ONEWEB-0673","OBJECT_ID":"2023-029AN","EPOCH":"2025-12-11T05:49:04.888416","MEAN_MOTION":13.19724829,"ECCENTRICITY":0.00019226,"INCLINATION":87.9207,"RA_OF_ASC_NODE":342.3564,"ARG_OF_PERICENTER":88.9515,"MEAN_ANOMALY":271.1838,"EPHEMERIS_TYPE":0,"CLASSIFICATION_TYPE":"U","NORAD_CAT_ID":55832,"ELEMENT_SET_NO":999,"REV_AT_EPOCH":13411,"BSTAR":0.0006996408,"MEAN_MOTION_DOT":2.93e-6,"MEAN_MOTION_DDOT":0},{"OBJECT_NAME":"ONEWEB-0674","OBJECT_ID":"2023-029AP","EPOCH":"2025-12-11T05:53:54.654144","MEAN_MOTION":13.14504056,"ECCENTRICITY":0.00021958,"INCLINATION":87.8985,"RA_OF_ASC_NODE":327.1771,"ARG_OF_PERICENTER":93.2972,"MEAN_ANOMALY":266.8409,"EPHEMERIS_TYPE":0,"CLASSIFICATION_TYPE":"U","NORAD_CAT_ID":55833,"ELEMENT_SET_NO":999,"REV_AT_EPOCH":13472,"BSTAR":0.00083651599,"MEAN_MOTION_DOT":3.23e-6,"MEAN_MOTION_DDOT":0},{"OBJECT_NAME":"ONEWEB-0675","OBJECT_ID":"2023-029AQ","EPOCH":"2025-12-11T06:10:40.442592","MEAN_MOTION":13.19723963,"ECCENTRICITY":0.00015133,"INCLINATION":87.9188,"RA_OF_ASC_NODE":342.3819,"ARG_OF_PERICENTER":84.56,"MEAN_ANOMALY":275.5705,"EPHEMERIS_TYPE":0,"CLASSIFICATION_TYPE":"U","NORAD_CAT_ID":55834,"ELEMENT_SET_NO":999,"REV_AT_EPOCH":13413,"BSTAR":7.7222849e-5,"MEAN_MOTION_DOT":4.4e-7,"MEAN_MOTION_DDOT":0},{"OBJECT_NAME":"ONEWEB-0720","OBJECT_ID":"2023-029AR","EPOCH":"2025-12-11T05:59:18.062304","MEAN_MOTION":13.19724898,"ECCENTRICITY":0.00020694,"INCLINATION":87.9192,"RA_OF_ASC_NODE":342.3815,"ARG_OF_PERICENTER":80.9909,"MEAN_ANOMALY":279.1458,"EPHEMERIS_TYPE":0,"CLASSIFICATION_TYPE":"U","NORAD_CAT_ID":55835,"ELEMENT_SET_NO":999,"REV_AT_EPOCH":13405,"BSTAR":0.00015893856,"MEAN_MOTION_DOT":7.7e-7,"MEAN_MOTION_DDOT":0},{"OBJECT_NAME":"ONEWEB-0537","OBJECT_ID":"2023-043A","EPOCH":"2025-12-11T06:05:55.701888","MEAN_MOTION":13.16595504,"ECCENTRICITY":0.0001444,"INCLINATION":87.9043,"RA_OF_ASC_NODE":266.193,"ARG_OF_PERICENTER":75.5153,"MEAN_ANOMALY":284.6138,"EPHEMERIS_TYPE":0,"CLASSIFICATION_TYPE":"U","NORAD_CAT_ID":56046,"ELEMENT_SET_NO":999,"REV_AT_EPOCH":13423,"BSTAR":0.00030370826,"MEAN_MOTION_DOT":1.29e-6,"MEAN_MOTION_DDOT":0},{"OBJECT_NAME":"ONEWEB-0538","OBJECT_ID":"2023-043B","EPOCH":"2025-12-11T05:56:48.001920","MEAN_MOTION":13.16595967,"ECCENTRICITY":0.00016279,"INCLINATION":87.9041,"RA_OF_ASC_NODE":266.1981,"ARG_OF_PERICENTER":64.4595,"MEAN_ANOMALY":295.6704,"EPHEMERIS_TYPE":0,"CLASSIFICATION_TYPE":"U","NORAD_CAT_ID":56047,"ELEMENT_SET_NO":999,"REV_AT_EPOCH":13424,"BSTAR":0.00051786285,"MEAN_MOTION_DOT":2.11e-6,"MEAN_MOTION_DDOT":0},{"OBJECT_NAME":"ONEWEB-0546","OBJECT_ID":"2023-043C","EPOCH":"2025-12-11T05:38:34.298880","MEAN_MOTION":13.16596376,"ECCENTRICITY":0.00010162,"INCLINATION":87.9057,"RA_OF_ASC_NODE":266.1915,"ARG_OF_PERICENTER":79.9535,"MEAN_ANOMALY":280.1711,"EPHEMERIS_TYPE":0,"CLASSIFICATION_TYPE":"U","NORAD_CAT_ID":56048,"ELEMENT_SET_NO":999,"REV_AT_EPOCH":13423,"BSTAR":0.00038020829,"MEAN_MOTION_DOT":1.58e-6,"MEAN_MOTION_DDOT":0},{"OBJECT_NAME":"ONEWEB-0547","OBJECT_ID":"2023-043D","EPOCH":"2025-12-11T07:04:24.510432","MEAN_MOTION":13.2182501,"ECCENTRICITY":0.00018559,"INCLINATION":87.9217,"RA_OF_ASC_NODE":281.4492,"ARG_OF_PERICENTER":72.6528,"MEAN_ANOMALY":287.4809,"EPHEMERIS_TYPE":0,"CLASSIFICATION_TYPE":"U","NORAD_CAT_ID":56049,"ELEMENT_SET_NO":999,"REV_AT_EPOCH":13340,"BSTAR":0.00018500869,"MEAN_MOTION_DOT":8.9e-7,"MEAN_MOTION_DDOT":0},{"OBJECT_NAME":"ONEWEB-0548","OBJECT_ID":"2023-043E","EPOCH":"2025-12-11T06:13:53.905152","MEAN_MOTION":13.16594114,"ECCENTRICITY":0.00019724,"INCLINATION":87.9038,"RA_OF_ASC_NODE":266.194,"ARG_OF_PERICENTER":86.8789,"MEAN_ANOMALY":273.2568,"EPHEMERIS_TYPE":0,"CLASSIFICATION_TYPE":"U","NORAD_CAT_ID":56050,"ELEMENT_SET_NO":999,"REV_AT_EPOCH":13423,"BSTAR":0.00013460358,"MEAN_MOTION_DOT":6.4e-7,"MEAN_MOTION_DDOT":0},{"OBJECT_NAME":"ONEWEB-0549","OBJECT_ID":"2023-043F","EPOCH":"2025-12-11T06:53:44.416032","MEAN_MOTION":13.21825654,"ECCENTRICITY":0.00018784,"INCLINATION":87.9215,"RA_OF_ASC_NODE":281.4645,"ARG_OF_PERICENTER":68.4347,"MEAN_ANOMALY":291.6987,"EPHEMERIS_TYPE":0,"CLASSIFICATION_TYPE":"U","NORAD_CAT_ID":56051,"ELEMENT_SET_NO":999,"REV_AT_EPOCH":13340,"BSTAR":0.00015623437,"MEAN_MOTION_DOT":7.8e-7,"MEAN_MOTION_DDOT":0},{"OBJECT_NAME":"ONEWEB-0550","OBJECT_ID":"2023-043G","EPOCH":"2025-12-11T06:34:46.924608","MEAN_MOTION":13.21823699,"ECCENTRICITY":0.00017987,"INCLINATION":87.9219,"RA_OF_ASC_NODE":281.4621,"ARG_OF_PERICENTER":80.6282,"MEAN_ANOMALY":279.5056,"EPHEMERIS_TYPE":0,"CLASSIFICATION_TYPE":"U","NORAD_CAT_ID":56052,"ELEMENT_SET_NO":999,"REV_AT_EPOCH":13340,"BSTAR":0.00082675266,"MEAN_MOTION_DOT":3.54e-6,"MEAN_MOTION_DDOT":0},{"OBJECT_NAME":"ONEWEB-0551","OBJECT_ID":"2023-043H","EPOCH":"2025-12-11T07:02:50.222112","MEAN_MOTION":13.15548954,"ECCENTRICITY":0.00019846,"INCLINATION":87.8989,"RA_OF_ASC_NODE":296.7254,"ARG_OF_PERICENTER":74.5233,"MEAN_ANOMALY":285.6116,"EPHEMERIS_TYPE":0,"CLASSIFICATION_TYPE":"U","NORAD_CAT_ID":56053,"ELEMENT_SET_NO":999,"REV_AT_EPOCH":13169,"BSTAR":0.00018188139,"MEAN_MOTION_DOT":8.1e-7,"MEAN_MOTION_DDOT":0},{"OBJECT_NAME":"ONEWEB-0552","OBJECT_ID":"2023-043J","EPOCH":"2025-12-11T06:27:40.486176","MEAN_MOTION":13.21826544,"ECCENTRICITY":0.00020319,"INCLINATION":87.9218,"RA_OF_ASC_NODE":281.4718,"ARG_OF_PERICENTER":73.6005,"MEAN_ANOMALY":286.5352,"EPHEMERIS_TYPE":0,"CLASSIFICATION_TYPE":"U","NORAD_CAT_ID":56054,"ELEMENT_SET_NO":999,"REV_AT_EPOCH":13340,"BSTAR":0.00013615222,"MEAN_MOTION_DOT":6.9e-7,"MEAN_MOTION_DDOT":0},{"OBJECT_NAME":"ONEWEB-0553","OBJECT_ID":"2023-043K","EPOCH":"2025-12-11T05:47:40.804800","MEAN_MOTION":13.16595074,"ECCENTRICITY":0.00014453,"INCLINATION":87.9048,"RA_OF_ASC_NODE":266.1978,"ARG_OF_PERICENTER":79.2955,"MEAN_ANOMALY":280.8339,"EPHEMERIS_TYPE":0,"CLASSIFICATION_TYPE":"U","NORAD_CAT_ID":56055,"ELEMENT_SET_NO":999,"REV_AT_EPOCH":13424,"BSTAR":0.00030805111,"MEAN_MOTION_DOT":1.31e-6,"MEAN_MOTION_DDOT":0}]
